[{"OBJECT_NAME":"STARLINK-31892","OBJECT_ID":"2024-097U","EPOCH":"2026-03-09T13:19:05.058624","MEAN_MOTION":15.27575099,"ECCENTRICITY":0.00013189,"INCLINATION":43.0015,"RA_OF_ASC_NODE":275.3387,"ARG_OF_PERICENTER":275.6883,"MEAN_ANOMALY":84.3818,"EPHEMERIS_TYPE":0,"CLASSIFICATION_TYPE":"U","NORAD_CAT_ID":59853,"ELEMENT_SET_NO":999,"REV_AT_EPOCH":10189,"BSTAR":-2.4375818e-5,"MEAN_MOTION_DOT":-9.33e-6,"MEAN_MOTION_DDOT":0},{"OBJECT_NAME":"OBJECT K","OBJECT_ID":"2024-205K","EPOCH":"2026-03-09T22:22:01.331040","MEAN_MOTION":15.27932792,"ECCENTRICITY":0.00106729,"INCLINATION":97.417,"RA_OF_ASC_NODE":146.2172,"ARG_OF_PERICENTER":37.4736,"MEAN_ANOMALY":322.7246,"EPHEMERIS_TYPE":0,"CLASSIFICATION_TYPE":"U","NORAD_CAT_ID":61903,"ELEMENT_SET_NO":999,"REV_AT_EPOCH":7347,"BSTAR":0.00067315144,"MEAN_MOTION_DOT":0.00018331,"MEAN_MOTION_DDOT":0}]
